ISS (ZARYA)             
1 25544U 98067A   26082.45371250  .00014788  00000+0  28089-3 0  9992
2 25544  51.6345   4.3184 0006177 224.0290 136.0206 15.48489537558466
POISK                   
1 36086U 09060A   26082.45371250  .00014788  00000+0  28089-3 0  9990
2 36086  51.6345   4.3184 0006177 224.0290 136.0206 15.48489537558234
CSS (TIANHE)            
1 48274U 21035A   26082.53453820  .00022489  00000+0  25938-3 0  9998
2 48274  41.4661 123.8751 0005036   3.1602 356.9268 15.61385941279776
ISS (NAUKA)             
1 49044U 21066A   26082.45371250  .00014788  00000+0  28089-3 0  9998
2 49044  51.6345   4.3184 0006177 224.0290 136.0206 15.48489537558276
FREGAT DEB              
1 49271U 11037PF  26081.65713202  .00017384  00000+0  24515-1 0  9998
2 49271  51.6477 261.8223 0963477  89.1012 281.9939 12.40598329214300
CSS (WENTIAN)           
1 53239U 22085A   26082.53453820  .00022489  00000+0  25938-3 0  9991
2 53239  41.4661 123.8751 0005036   3.1602 356.9268 15.61385941279829
CSS (MENGTIAN)          
1 54216U 22143A   26082.53453820  .00022489  00000+0  25938-3 0  9992
2 54216  41.4661 123.8751 0005036   3.1602 356.9268 15.61385941279825
TIANZHOU-9              
1 64786U 25149A   26082.53453820  .00022489  00000+0  25938-3 0  9994
2 64786  41.4661 123.8751 0005036   3.1602 356.9268 15.61385941279828
PROGRESS-MS 32          
1 65586U 25204A   26082.19556657  .00017435  00000+0  32964-3 0  9991
2 65586  51.6344   5.5946 0006192 222.9473 137.1033 15.48483260554509
YOTSUBA-KULOVER         
1 65941U 98067XN  26082.14507494  .00397077  00000+0  14014-2 0  9991
2 65941  51.6200 347.1637 0005185 167.6990 192.4142 15.87494566 25633
BOTAN                   
1 65943U 98067XQ  26082.15358306  .00351978  00000+0  12895-2 0  9995
2 65943  51.6227 347.2432 0005769 167.5490 192.5658 15.86838816 25632
HRC MONOBLOCK CAMERA    
1 66052U 98067XR  26082.12763549  .00059724  00000+0  63021-3 0  9995
2 66052  51.6288 357.6395 0003899 154.3365 205.7824 15.63632380 24499
HTV-X1                  
1 66174U 25241A   26073.34423285  .00013198  00000+0  56794-3 0  9992
2 66174  51.6357  50.7100 0005732 187.3443 172.7451 15.22910005 21660
SZ-21 MODULE            
1 66515U 25246C   26082.18487837  .00043706  00000+0  35991-3 0  9995
2 66515  41.4734 120.2206 0000654 218.7155 141.3640 15.69572241 20198
SHENZHOU-22             
1 66645U 25272A   26082.53453820  .00022489  00000+0  25938-3 0  9997
2 66645  41.4661 123.8751 0005036   3.1602 356.9268 15.61385941279824
SOYUZ-MS 28             
1 66664U 25275A   26082.45371250  .00014788  00000+0  28089-3 0  9991
2 66664  51.6345   4.3184 0006177 224.0290 136.0206 15.48489537558510
